#dP2019  2  7  0  0  0.00000000      96 __u+U ITR00 FIT  IAC
## 2039 345600.00000000   900.00000000 58521 0.0000000000000
+   98   C01C02C03C04C05C06C07C08C09C10C11C12C13C14C16E01E02
+        E03E04E05E07E08E09E11E12E13E14E15E18E19E21E24E25E26
+        E27E30E31E33E36G01G02G03G04G05G06G07G08G09G10G11G12
+        G13G14G15G16G17G18G19G20G21G22G23G24G25G26G27G28G29
+        G30G31G32J01J02J03J07R01R02R03R04R05R07R08R09R10R11
+        R13R14R15R16R17R18R19R20R21R22R23R24R26  0  0  0  0
++        12 12 12 12 12  8  9  8  8  9  8  8  8  8  8  5  5
++         5  5  6  5  5  5  5  5  6  5  6  5  5  5  5  5  4
++         5  5  5  6  7  3  3  3  4  3  3  3  3  3  3  3  3
++         3  3  3  3  3  3  3  3  3  3  3  3  3  3  3  3  3
++         3  3  3 10  9 10 16  5  5  5  5  5  5  5  5  5  5
++         6  5  5  6  5  5  5  5  5  6  6  6  8  0  0  0  0
%c M  cc GPS ccc cccc cccc cccc cccc ccccc ccccc ccccc ccccc
%c cc cc ccc ccc cccc cccc cccc cccc ccccc ccccc ccccc ccccc
%f  0.0000000  0.000000000  0.00000000000  0.000000000000000
%f  0.0000000  0.000000000  0.00000000000  0.000000000000000
%i    0    0    0    0      0      0      0      0         0
%i    0    0    0    0      0      0      0      0         0
/* INFORMATION & ANALYSIS CENTER (IAC) OF MCC   (RAPID DATA)
/* S/V CLOCKS ARE ALIGNED TO GPS & GLONASS TIME RESPECTIVELY
/* USING THE BROADCAST EPHEMERIS                            
/* PCV:IGS14_2035 OL/AL:FES2004  NONE     YN ORB:CoN CLK:CoN
*  2019 02 07 12 30  0.00000000
PC01 -32291.687801  27089.744600   1101.744685    185.773217
PC02   4357.423205  41943.938183   -674.475291   -301.131828
PC03 -14774.871793  39457.965533    427.925439      8.536688
PC04 -39624.863023  14424.915069    652.282499   -181.759324
PC05  21874.533342  36013.373556   -984.016219      9.844700
PC06  -7250.206051  25365.512624 -32546.231929    373.467999
PC07 -22999.059193  27126.266358  22434.431542    159.573017
PC08 -14430.430126  38496.092469  10076.673278    106.734909
PC09   5047.143168  32072.092655 -26532.673286    512.708960
PC10  -8876.945487  28215.734939  30054.459608   -473.498037
PC11 -14537.315751 -22136.275295   8763.057331      6.003276
PC12   3203.491800 -22097.792280 -16616.437714    403.016419
PC13  -6475.587867  41722.266433  -2513.121688   -528.810614
PC14 -10291.064466 -16012.215489  20481.568464    877.763045
PC16  -5287.070202  26032.717143 -32715.227109   -175.840090
PE01  24467.076607 -16290.727159  -3462.786370   -537.395119
PE02 -24459.001850  16315.090502   3499.770126     46.564458
PE03 -17596.681555   8034.439028 -22405.249762   -130.900943
PE04  -1799.223797 -19469.137144  22224.678404   -216.232969
PE05 -26826.718505  -8198.470691  -9453.629738    111.649203
PE07  20323.838076  19564.987647  -8972.031329   -127.142325
PE08   2124.343923  19367.682900 -22287.515738   6408.202068
PE09 -20507.058087 -19341.321092   9011.911766   6535.023052
PE11 -10049.831496 -23355.032909  15175.972513   5720.115363
PE12   2377.533252 -29317.124749  -3398.476661   6115.389323
PE13  10023.097865  23418.108285 -15058.371957    382.684309
PE14  -3191.070297 -26646.385530 -15208.146710   6448.404177
PE15  -2011.222904  29368.340193   3101.065122    920.740974
PE18  13573.634549  22593.817929   1458.574998   5547.936414
PE19  19075.012093  -6403.015182  21707.367225     -8.560002
PE21  25268.896013  -2784.794654  15155.827778   -518.347341
PE24 -11583.256720 -12037.861671 -24449.112043   6245.599433
PE25 -25256.753459   2753.593926 -15188.614976   1900.493762
PE26  16355.219301   3971.516412 -24337.821329   4930.931268
PE27  11098.172992  12273.934765  24543.792394    534.015277
PE30  -9215.286549  20029.249854  19748.819610   5126.032466
PE31   9552.041401 -20098.939760 -19512.661119    912.746505
PE33  12888.302237 -18174.837433 -19476.038024    847.975891
PE36 -16239.870443  -3728.362668  24477.965255    750.417802
PG01 -13811.467133  21318.791733   7014.640499   -158.930300
PG02  15891.342329  -1441.223821 -20602.435714   -133.626902
PG03 -17958.320432  12901.804624 -14695.891956    181.751588
PG04   8568.989232  23148.028477  -9796.498137    107.224074
PG05  26383.114657  -1905.503410  -3520.283963      1.031865
PG06  10735.309461  11895.431362 -21136.205234    280.857523
PG07  -5058.561035  24921.929131   7017.670477     37.078404
PG08 -15313.837686   4327.508229  21343.552249   -131.870049
PG09   3738.445387  21607.338849 -15028.083399    461.798116
PG10 -13048.758987 -12053.904872  19856.662967    121.435607
PG11 -10413.913941  19191.221646  14739.887647   -663.931298
PG12  20252.507482 -10599.846650 -13568.262983    269.952790
PG13  17993.809966   4601.414906  18882.084637    -75.721965
PG14 -18156.151066 -17955.808439  -7331.980916    -91.834649
PG15  13990.467269  -7985.889830  20897.124456   -328.918074
PG16 -26697.580752   -129.977603  -2523.748284    -17.661629
PG17  14272.456227  22412.189396   1894.105202      6.353231
PG18 -16235.384327  13953.607134  15150.581686     23.538265
PG19  17898.523791  17894.553986  -8167.748657   -355.067345
PG20  -2810.793710 -15596.773885  21197.109645    521.958056
PG21    894.931085 -24993.671640   9905.095026   -254.683873
PG22 -23099.692399  10609.127033  -7373.655291   -640.082696
PG23  -6377.033926  15426.421802 -20259.152687   -198.036075
PG24  14975.478080 -18657.594629  11030.118338    -61.830554
PG25   9000.128753 -15081.568315 -20043.037925   -717.024919
PG26 -23494.422756  -4511.280113 -11738.633631    117.917569
PG27 -19568.795988  -6450.691335  16833.750475    -63.120823
PG28  10307.670228  13461.904162  21037.202556    764.013054
PG29    936.096363 -19594.856706 -17927.524331    275.931835
PG30   3412.802781  20794.400259  16076.231375    -48.691110
PG31 -12119.206195  -9767.891666 -21463.710682     60.321648
PG32 -17049.268306 -20427.047488   -793.836582   -238.451320
PJ01 -30087.470515  18197.485103 -18600.962382   -193.998099
PJ02 -28866.973780  30678.105580   2358.526960     -0.507806
PJ03 -23982.455384  24859.442928  29304.681646     -0.090849
PJ07 -25400.923680  33659.515478    -34.037394    635.053811
PR01  21774.113565    435.270469  13290.103859     39.098505
PR02   4628.730945  -9938.528828  23064.169823    353.164465
PR03 -13547.416713 -13325.349184  17076.024991     -8.901573
PR04 -23994.814943  -8657.424793    683.278202    294.282245
PR05 -20477.173181    478.127678 -15211.246313     21.648262
PR07  13937.859553  13277.369132 -16685.517079    -57.444024
PR08  23832.350041   8976.724103  -1331.244660     19.200421
PR09 -12674.109702  18527.195149  12068.111337     53.057771
PR10    630.890683  12780.288825  22029.643340     41.420320
PR11  15639.222125   -629.137746  20164.885239    -55.968068
PR13  13447.913495 -18701.279482 -10975.888023    -19.857923
PR14   -862.147428 -12987.845516 -21929.296360     35.742319
PR15 -14984.197967     27.603280 -20628.159464     99.741993
PR16 -20468.728599  13392.767322  -7476.538704     11.111598
PR17  -6315.699619 -24404.513353   3804.057777    202.575535
PR18 -11070.553388 -13790.288743  18431.743975     32.031707
PR19  -9861.643644   4231.638479  23148.162272    -61.430630
PR20  -2700.608573  21420.945306  13557.792393   -368.056214
PR21   6520.632269  24288.020829  -4332.548397    -29.944338
PR22  11183.682082  11274.098002 -19905.195452    -64.262420
PR23   8406.287207  -9595.312485 -22089.940688    208.081205
PR24   1563.753368 -22345.858361 -12236.390735   -176.910146
PR26  -3312.196571  20199.533478  15252.412779     -5.081696
EOF
